QIANFAN-33              
1 61566U 24185Q   26017.94363225  .00000204  00000+0  13741-3 0  9998
2 61566  88.9768  74.7747 0006520 195.2820 164.8161 13.96582407 74214
QIANFAN-34              
1 61567U 24185R   26017.97463047  .00000259  00000+0  16010-3 0  9997
2 61567  88.9743  74.2871 0005359 196.1892 163.9117 14.02338939 74431
QIANFAN-35              
1 61568U 24185S   26017.92505393  .00000645  00000+0  25406-3 0  9992
2 61568  88.9769  72.6345 0007655 150.7689 209.3935 14.28033884 75342
QIANFAN-36              
1 61569U 24185T   26017.90972174  .00000048  00000+0  52280-4 0  9994
2 61569  88.9753  77.2804 0004106 306.1535  53.9239 13.55600325 72821
QIANFAN-37              
1 62238U 24232B   26017.98775656  .00000044  00000+0  49668-4 0  9997
2 62238  88.9993  37.6661 0001983  72.6316 287.5052 13.50982586104061
QIANFAN-38              
1 62239U 24232C   26017.93842014  .00000056  00000+0  67400-4 0  9993
2 62239  89.0000  37.5893 0016535  91.0162 269.2884 13.50980533104118
QIANFAN-39              
1 62240U 24232D   26017.99795300  .00000134  00000+0  50613-4 0  9991
2 62240  88.9995  33.1576 0014745 327.0321  32.9951 14.25412252106552
QIANFAN-40              
1 62241U 24232E   26017.97133909  .00000059  00000+0  72828-4 0  9999
2 62241  89.0027  37.1805 0015551  97.8647 262.4271 13.50980655104488
